NORAD_CAT_ID,OBJECT_NAME,OBJECT_TYPE,EPOCH,MEAN_MOTION,ECCENTRICITY,INCLINATION,RA_OF_ASC_NODE,ARG_OF_PERICENTER,MEAN_ANOMALY,BSTAR,MEAN_MOTION_DOT,MEAN_MOTION_DDOT,TLE_LINE0,TLE_LINE1,TLE_LINE2,SEMIMAJOR_AXIS,PERIOD,APOGEE,PERIGEE,DECAYED
51799.0,STARLINK-3637,PAYLOAD,2022-05-24 13:02:56,15.08820282,0.0001893,53.2214,87.2688,51.534,308.5821,-2.8846e-05,-7.47e-06,0.0,0 STARLINK-3637,1 51799U 22017AH  22144.54370954 -.00000747  00000-0 -28846-4 0  9995,2 51799  53.2214  87.2688 0001893  51.5340 308.5821 15.08820282 14815,6917.941,95.439,541.115,538.496,0.0
51799.0,STARLINK-3637,PAYLOAD,2022-05-24 22:00:00,15.08836666,0.0001546,53.2196,85.5962,55.2291,171.9102,-0.00013,-2.356e-05,0.0,0 STARLINK-3637,1 51799U 22017AH  22144.91667824 -.00002356  00000-0 -13000-3 0  9994,2 51799  53.2196  85.5962 0001546  55.2291 171.9102 15.08836666  1308,6917.891,95.438,540.825,538.686,0.0
51799.0,STARLINK-3637,PAYLOAD,2022-05-25 04:00:00,15.08828873,0.0001685,53.2194,84.4753,49.9186,95.9186,0.0012635,0.00019872,0.0,0 STARLINK-3637,1 51799U 22017AH  22145.16667824  .00019872  00000-0  12635-2 0  9993,2 51799  53.2194  84.4753 0001685  49.9186  95.9186 15.08828873 14907,6917.9140000000025,95.438,540.945,538.614,0.0
51799.0,STARLINK-3637,PAYLOAD,2022-05-25 14:00:01,15.08851208,0.0001575,53.2192,82.6033,54.0083,196.3192,6.2941e-05,7.14e-06,0.0,0 STARLINK-3637,1 51799U 22017AH  22145.58334491  .00000714  00000-0  62941-4 0  9992,2 51799  53.2192  82.6033 0001575  54.0083 196.3192 15.08851208  1308,6917.846,95.437,540.8009999999998,538.622,0.0
51799.0,STARLINK-3637,PAYLOAD,2022-05-25 22:00:00,15.08862695,0.0001658,53.2193,81.1073,58.371,203.5648,-0.0015642999999999,-0.00025113,0.0,0 STARLINK-3637,1 51799U 22017AH  22145.91667824 -.00025113  00000-0 -15643-2 0  9995,2 51799  53.2193  81.1073 0001658  58.3710 203.5648 15.08862695  1302,6917.811,95.436,540.823,538.529,0.0
51799.0,STARLINK-3637,PAYLOAD,2022-05-26 03:12:11,15.08834567,0.0001991,53.2218,80.1315,49.2898,310.8267,0.00017712,2.531e-05,0.0,0 STARLINK-3637,1 51799U 22017AH  22146.13346238  .00002531  00000-0  17712-3 0  9990,2 51799  53.2218  80.1315 0001991  49.2898 310.8267 15.08834567 15057,6917.897,95.438,541.139,538.385,0.0
51799.0,STARLINK-3637,PAYLOAD,2022-05-26 14:00:01,15.08833411,0.0001638,53.2193,78.1144,55.9783,229.1782,-0.00018058,-3.16e-05,0.0,0 STARLINK-3637,1 51799U 22017AH  22146.58334491 -.00003160  00000-0 -18058-3 0  9992,2 51799  53.2193  78.1144 0001638  55.9783 229.1782 15.08833411  1305,6917.901,95.438,540.899,538.632,0.0
51799.0,STARLINK-3637,PAYLOAD,2022-05-26 22:00:00,15.08839768,0.0001730999999999,53.2195,76.6185,58.9207,237.8167,-0.0018875,-0.00030202,0.0,0 STARLINK-3637,1 51799U 22017AH  22146.91667824 -.00030202  00000-0 -18875-2 0  9991,2 51799  53.2195  76.6185 0001731  58.9207 237.8167 15.08839768  1307,6917.880999999999,95.438,540.944,538.549,0.0
51799.0,STARLINK-3637,PAYLOAD,2022-05-27 12:00:00,15.08841195,0.0001779,53.2196,74.0,55.9175,171.0779,-0.00093701,-0.0001517,0.0,0 STARLINK-3637,1 51799U 22017AH  22147.50001157 -.00015170  00000-0 -93701-3 0  9997,2 51799  53.2196  74.0000 0001779  55.9175 171.0779 15.08841195 15253,6917.877,95.437,540.972,538.511,0.0
51799.0,STARLINK-3637,PAYLOAD,2022-05-27 12:35:17,15.08833479,0.0001716,53.2221,73.8923,51.594,308.5206,4.0392e-05,3.55e-06,0.0,0 STARLINK-3637,1 51799U 22017AH  22147.52451025  .00000355  00000-0  40392-4 0  9998,2 51799  53.2221  73.8923 0001716  51.5940 308.5206 15.08833479 15265,6917.9,95.438,540.952,538.578,0.0
51799.0,STARLINK-3637,PAYLOAD,2022-05-27 22:00:01,15.08837309,0.0001954,53.2175,72.1334,52.0432,279.5027,-4.084e-05,-9.38e-06,0.0,0 STARLINK-3637,1 51799U 22017AH  22147.91668981 -.00000938  00000-0 -40840-4 0  9999,2 51799  53.2175  72.1334 0001954  52.0432 279.5027 15.08837309  1301,6917.889,95.438,541.105,538.4019999999998,0.0
51799.0,STARLINK-3637,PAYLOAD,2022-05-28 04:00:00,15.088441199999998,0.0001944,53.2202,71.009,54.3614,195.8326,0.0014125,0.00022266,0.0,0 STARLINK-3637,1 51799U 22017AH  22148.16667824  .00022266  00000-0  14125-2 0  9993,2 51799  53.2202  71.0090 0001944  54.3614 195.8326 15.08844120 15356,6917.868,95.437,541.078,538.388,0.0
51799.0,STARLINK-3637,PAYLOAD,2022-05-28 12:26:02,15.08862481,0.0001238,53.2219,69.4308,91.3961,268.7173,0.0001411,1.96e-05,0.0,0 STARLINK-3637,1 51799U 22017AH  22148.51808348  .00001960  00000-0  14110-3 0  9993,2 51799  53.2219  69.4308 0001238  91.3961 268.7173 15.08862481 15416,6917.812,95.436,540.533,538.82,0.0
51799.0,STARLINK-3637,PAYLOAD,2022-05-28 22:00:00,15.08886761,0.0001692,53.2208,67.6413,56.3675,309.9631,-0.0035033,-0.00055684,0.0,0 STARLINK-3637,1 51799U 22017AH  22148.91667824 -.00055684  00000-0 -35033-2 0  9999,2 51799  53.2208  67.6413 0001692  56.3675 309.9631 15.08886761  1305,6917.736999999999,95.435,540.773,538.432,0.0
51799.0,STARLINK-3637,PAYLOAD,2022-05-29 04:00:00,15.08835582,0.0001771,53.2208,66.5203,49.7923,235.2574,-8.3571e-05,-1.618e-05,0.0,0 STARLINK-3637,1 51799U 22017AH  22149.16667824 -.00001618  00000-0 -83571-4 0  9997,2 51799  53.2208  66.5203 0001771  49.7923 235.2574 15.08835582 15509,6917.894,95.438,540.984,538.534,0.0
51799.0,STARLINK-3637,PAYLOAD,2022-05-29 14:00:01,15.0881733,0.000152,53.221,64.6483,52.8716,336.6639,-0.00055968,-9.179e-05,0.0,0 STARLINK-3637,1 51799U 22017AH  22149.58334491 -.00009179  00000-0 -55968-3 0  9992,2 51799  53.2210  64.6483 0001520  52.8716 336.6639 15.08817330  1300,6917.95,95.439,540.866,538.763,0.0
51799.0,STARLINK-3637,PAYLOAD,2022-05-29 20:00:01,15.08829808,0.0001563,53.2213,63.5265,55.2512,252.9579,-0.0031747,-0.00050446,0.0,0 STARLINK-3637,1 51799U 22017AH  22149.83334491 -.00050446  00000-0 -31747-2 0  9991,2 51799  53.2213  63.5265 0001563  55.2512 252.9579 15.08829808 15601,6917.9119999999975,95.438,540.8580000000002,538.695,0.0
51799.0,STARLINK-3637,PAYLOAD,2022-05-29 21:49:09,15.08842894,0.0001759,53.221,63.1856,66.2691,293.8485,-3.6208e-05,-8.64e-06,0.0,0 STARLINK-3637,1 51799U 22017AH  22149.90913541 -.00000864  00000-0 -36208-4 0  9996,2 51799  53.2210  63.1856 0001759  66.2691 293.8485 15.08842894 15629,6917.871999999999,95.437,540.953,538.52,0.0
51799.0,STARLINK-3637,PAYLOAD,2022-05-30 02:35:19,15.08824087,0.000159,53.2208,62.2945,58.1215,301.9932,-0.00041403,-6.868e-05,0.0,0 STARLINK-3637,1 51799U 22017AH  22150.10786140 -.00006868  00000-0 -41403-3 0  9995,2 51799  53.2208  62.2945 0001590  58.1215 301.9932 15.08824087 15655,6917.929,95.439,540.894,538.694,0.0
51799.0,STARLINK-3637,PAYLOAD,2022-05-30 14:00:01,15.08807978,0.0001465,53.2212,60.16,53.0563,11.1492,0.0030552,0.00048628,0.0,0 STARLINK-3637,1 51799U 22017AH  22150.58334491  .00048628  00000-0  30552-2 0  9995,2 51799  53.2212  60.1600 0001465  53.0563  11.1492 15.08807978  1304,6917.978,95.44,540.857,538.83,0.0
51799.0,STARLINK-3637,PAYLOAD,2022-05-30 22:00:00,15.08855364,0.0001581,53.2214,58.665,52.7548,23.0239,-0.001381,-0.00022209,0.0,0 STARLINK-3637,1 51799U 22017AH  22150.91667824 -.00022209  00000-0 -13810-2 0  9998,2 51799  53.2214  58.6650 0001581  52.7548  23.0239 15.08855364  1304,6917.833000000001,95.437,540.7919999999998,538.605,0.0
51799.0,STARLINK-3637,PAYLOAD,2022-05-31 04:01:30,15.08828855,0.0001493,53.2207,57.5367,43.1659,316.945,0.0010507,0.00016468,0.0,0 STARLINK-3637,1 51799U 22017AH  22151.16771546  .00016468  00000-0  10507-2 0  9991,2 51799  53.2207  57.5367 0001493  43.1659 316.9450 15.08828855 15813,6917.9140000000025,95.438,540.812,538.747,0.0
51799.0,STARLINK-3637,PAYLOAD,2022-05-31 06:00:02,15.08845707,0.0001710999999999,53.2209,57.1694,47.9824,39.4547,-0.0003003999999999,-5.067e-05,0.0,0 STARLINK-3637,1 51799U 22017AH  22151.25002315 -.00005067  00000-0 -30040-3 0  9992,2 51799  53.2209  57.1694 0001711  47.9824  39.4547 15.08845707  1301,6917.863,95.437,540.9119999999998,538.544,0.0
51799.0,STARLINK-3637,PAYLOAD,2022-05-31 22:00:00,15.0884849,0.000169,53.221,54.1767,56.8925,53.662,-0.0014023,-0.00022542,0.0,0 STARLINK-3637,1 51799U 22017AH  22151.91667824 -.00022542  00000-0 -14023-2 0  9996,2 51799  53.2210  54.1767 0001690  56.8925  53.6620 15.08848490  1300,6917.854,95.437,540.889,538.55,0.0
51799.0,STARLINK-3637,PAYLOAD,2022-06-01 03:52:17,15.08843229,0.0001457,53.2203,53.0773,49.058,311.0538,0.00029812,4.46e-05,0.0,0 STARLINK-3637,1 51799U 22017AH  22152.16131608  .00004460  00000-0  29812-3 0  9990,2 51799  53.2203  53.0773 0001457  49.0580 311.0538 15.08843229 15960,6917.871,95.437,540.743,538.7280000000002,0.0
51799.0,STARLINK-3637,PAYLOAD,2022-06-01 20:00:01,15.08866886,0.0001688,53.2206,50.0618,60.8312,351.6043,-0.001514,-0.0002432,0.0,0 STARLINK-3637,1 51799U 22017AH  22152.83334491 -.00024320  00000-0 -15140-2 0  9996,2 51799  53.2206  50.0618 0001688  60.8312 351.6043 15.08866886  1306,6917.7980000000025,95.436,540.831,538.495,0.0
51799.0,STARLINK-3637,PAYLOAD,2022-06-02 16:26:09,15.08847194,0.0001886,53.2209,46.2393,56.4507,303.6665,0.00015004,2.101e-05,0.0,0 STARLINK-3637,1 51799U 22017AH  22153.68483305  .00002101  00000-0  15004-3 0  9990,2 51799  53.2209  46.2393 0001886  56.4507 303.6665 15.08847194 16194,6917.858,95.437,541.028,538.419,0.0
51799.0,STARLINK-3637,PAYLOAD,2022-06-03 01:58:28,15.08841932,0.0001838,53.2211,44.4543,56.614,303.5027,0.00010653,1.408e-05,0.0,0 STARLINK-3637,1 51799U 22017AH  22154.08227585  .00001408  00000-0  10653-3 0  9995,2 51799  53.2211  44.4543 0001838  56.6140 303.5027 15.08841932 16258,6917.874,95.437,541.011,538.4680000000002,0.0
51799.0,STARLINK-3637,PAYLOAD,2022-06-03 09:55:24,15.08846208,0.0001743,53.221,42.9679,58.2259,301.8902,0.00014155,1.966e-05,0.0,0 STARLINK-3637,1 51799U 22017AH  22154.41347290  .00001966  00000-0  14155-3 0  9998,2 51799  53.2210  42.9679 0001743  58.2259 301.8902 15.08846208 16304,6917.861,95.437,540.932,538.521,0.0
